STARLINK-30159          
1 57440U 23105L   24305.05835184  .00001417  00000+0  11993-3 0  9997
2 57440  43.0003  69.4656 0001859 294.4596  65.6053 15.02537030 71010
STARLINK-30160          
1 57441U 23105M   24305.05504141 -.00004431  00000+0 -31335-3 0  9997
2 57441  42.9995  69.4457 0001721 276.5259  83.5387 15.02512124 70995
STARLINK-30146          
1 57442U 23105N   24305.05168907  .00001915  00000+0  15675-3 0  9995
2 57442  43.0054  69.4216 0001459 266.3973  93.6702 15.02545817 71220
STARLINK-30197          
1 57443U 23105P   24304.71597810  .00001607  00000+0  13401-3 0  9990
2 57443  43.0041  71.1991 0001350 275.2742  84.7946 15.02536467 71176
STARLINK-30181          
1 57444U 23105Q   24305.03503974  .00002742  00000+0  21797-3 0  9993
2 57444  43.0035  69.2966 0001143 276.1780  83.8932 15.02542172 71223
STARLINK-30215          
1 57445U 23105R   24305.03948972 -.00004661  00000+0 -33000-3 0  9999
2 57445  43.0026  69.3251 0000408 277.6945  82.3851 15.02558274 70968
STARLINK-30162          
1 57446U 23105S   24305.03200458  .00002802  00000+0  22238-3 0  9994
2 57446  43.0025  56.5393 0000865 294.5269  65.5483 15.02541296 71317
STARLINK-30178          
1 57447U 23105T   24304.70599201  .00003174  00000+0  24992-3 0  9997
2 57447  43.0029  71.1241 0001836 269.0839  90.9793 15.02536569 71117
STARLINK-30196          
1 57448U 23105U   24304.82895826  .00003826  00000+0  29817-3 0  9998
2 57448  43.0029  70.3308 0001145 281.1323  78.9391 15.02534016 70966
STARLINK-30225          
1 57449U 23105V   24304.75914362  .00005898  00000+0  45119-3 0  9992
2 57449  43.0057  70.6598 0001756 259.2618 100.8027 15.02545343 71218
STARLINK-30217          
1 57450U 23105W   24305.01537037  .00005292  00000+0  40641-3 0  9997
2 57450  43.0036  56.4605 0001536 274.6449  85.4218 15.02546693 71317
STARLINK-30216          
1 57451U 23105X   24304.82229800  .00003091  00000+0  24371-3 0  9999
2 57451  43.0007  70.2903 0000837 272.8295  87.2451 15.02542264 70984
STARLINK-30165          
1 57457U 23107A   24304.85065621  .00001564  00000+0  13083-3 0  9990
2 57457  43.0039 148.0549 0001129 265.0449  95.0265 15.02539594 70336
STARLINK-30140          
1 57458U 23107B   24304.84733407  .00002157  00000+0  17474-3 0  9991
2 57458  43.0030 148.0290 0000979 269.0593  91.0138 15.02531760 70665
STARLINK-30185          
1 57459U 23107C   24304.31217784  .00001120  00000+0  97998-4 0  9998
2 57459  43.0030 150.8944 0001355 259.3102 100.7587 15.02534723 70590
STARLINK-30077          
1 57460U 23107D   24304.84066558  .00004346  00000+0  33653-3 0  9999
2 57460  43.0030 147.9783 0001198 274.4654  85.6052 15.02539807 70669
STARLINK-30229          
1 57461U 23107E   24304.85398828  .00002465  00000+0  19748-3 0  9998
2 57461  43.0015 148.0759 0001076 277.3326  82.7394 15.02539783 70650
STARLINK-30088          
1 57462U 23107F   24304.83733996  .00001696  00000+0  14059-3 0  9991
2 57462  43.0018 147.9543 0001221 262.1844  97.8860 15.02537860 70651
STARLINK-30091          
1 57463U 23107G   24304.96363118  .00006498  00000+0  49546-3 0  9995
2 57463  43.0022 147.1792 0001102 263.0105  97.0612 15.02551900 70684
STARLINK-30115          
1 57464U 23107H   24304.84381106  .00021763  00000+0  13702-2 0  9996
2 57464  42.9992 145.4165 0009023 271.5842  88.3969 15.08767244 70680
STARLINK-30116          
1 57465U 23107J   24304.83178805  .00002422  00000+0  19427-3 0  9998
2 57465  42.9993 147.9137 0001365 245.1142 114.9558 15.02541672 70554
STARLINK-30092          
1 57467U 23107L   24304.29219828  .00003183  00000+0  25055-3 0  9990
2 57467  43.0020 150.7422 0001255 265.8708  94.1991 15.02541165 70594
STARLINK-30039          
1 57468U 23107M   24304.95364434  .00000800  00000+0  74317-4 0  9997
2 57468  43.0025 147.1038 0001265 259.5681 100.5019 15.02536751 70570
STARLINK-30171          
1 57469U 23107N   24304.88050753  .00000637  00000+0  62214-4 0  9997
2 57469  43.0017 147.4164 0001364 266.7983  93.2703 15.02542308 70674
STARLINK-30186          
1 57470U 23107P   24304.61792343  .00004877  00000+0  37577-3 0  9991
2 57470  43.0013 148.8857 0001310 260.6362  99.4332 15.02546009 70646
STARLINK-30190          
1 57471U 23107Q   24305.00348558  .00000081  00000+0  21066-4 0  9991
2 57471  43.0047 146.6144 0000932 262.5766  97.4971 15.02508718 70683
STARLINK-30204          
1 57472U 23107R   24304.61126825  .00001698  00000+0  14073-3 0  9993
2 57472  43.0033 148.8340 0001231 267.0212  93.0489 15.02535548 70643
STARLINK-30187          
1 57473U 23107S   24304.87388150 -.00003258  00000+0 -22652-3 0  9991
2 57473  43.0023 147.3570 0001389 276.6942  83.3742 15.02491766 70672
STARLINK-30110          
1 57474U 23107T   24304.25844799  .00023103  00000+0  15741-2 0  9999
2 57474  43.0023 149.6242 0003510 273.8069  86.2373 15.05850322 70606
STARLINK-30155          
1 57475U 23107U   24304.86385959  .00002695  00000+0  21448-3 0  9990
2 57475  43.0033 147.2909 0001596 269.7360  90.3300 15.02536830 70576
STARLINK-30161          
1 57476U 23107V   24304.92700947  .00001562  00000+0  13068-3 0  9997
2 57476  43.0042 146.9046 0001272 272.9585  87.1112 15.02536482 70681
STARLINK-30176          
1 57477U 23107W   24304.25999265 -.00006260  00000+0 -44881-3 0  9996
2 57477  43.0019 150.5003 0000678 308.5336  51.5446 15.02533630 70596
STARLINK-30154          
1 57495U 23113A   24304.41438452  .00002608  00000+0  20806-3 0  9998
2 57495  43.0032 188.8822 0001284 273.7784  86.2912 15.02534390 68996
STARLINK-30145          
1 57496U 23113B   24305.06253891  .00058894  00000+0  43405-2 0  9990
2 57496  43.0033 185.1580 0000781 249.9902 110.0857 15.02517030 69141
STARLINK-30226          
1 57497U 23113C   24305.05919072  .00013440  00000+0  10079-2 0  9999
2 57497  43.0024 185.1420 0001174 265.5276  94.5432 15.02541925 69156
STARLINK-30203          
1 57498U 23113D   24305.04919541  .00005139  00000+0  39521-3 0  9990
2 57498  43.0026 185.0609 0001981 267.2565  92.8050 15.02538667 69250
STARLINK-30169          
1 57499U 23113E   24305.01298664  .00021687  00000+0  16154-2 0  9996
2 57499  43.0021 172.9314 0001470 259.7752 100.2925 15.02538545 69239
STARLINK-30164          
1 57500U 23113F   24304.97272585  .00023872  00000+0  17748-2 0  9995
2 57500  43.0015 185.3454 0001167 274.2663  85.8046 15.02566942 69249
STARLINK-30072          
1 57501U 23113G   24305.16549855  .00021488  00000+0  15997-2 0  9990
2 57501  43.0023 184.2024 0001655 263.2618  96.8036 15.02562978 69167
STARLINK-30228          
1 57502U 23113H   24305.06474080  .00035195  00000+0  25728-2 0  9990
2 57502  43.0020 185.1556 0001841 262.1409  97.9224 15.03039957 69144
STARLINK-30230          
1 57503U 23113J   24305.04254930  .00004778  00000+0  36856-3 0  9997
2 57503  43.0022 185.0003 0001569 273.7506  86.3157 15.02535410 69147
STARLINK-30213          
1 57504U 23113K   24305.02934458  .00007710  00000+0  58502-3 0  9997
2 57504  43.0031 185.7479 0001442 267.9775  92.0902 15.02546041 69240
STARLINK-30227          
1 57505U 23113L   24305.00295162 -.00000205  00000+0 -37673-7 0  9992
2 57505  43.0042 172.5501 0002831 281.6016  78.4508 15.02543102 69455
STARLINK-30212          
1 57506U 23113M   24305.09248311  .00007595  00000+0  57670-3 0  9998
2 57506  43.0021 185.3702 0001775 251.0210 109.0440 15.02537830 69098
STARLINK-30219          
1 57507U 23113N   24305.08915483  .00018495  00000+0  13800-2 0  9996
2 57507  43.0028 185.3593 0001770 263.6036  96.4605 15.02552737 69257
STARLINK-30074          
1 57508U 23113P   24304.37109903  .00001707  00000+0  14137-3 0  9993
2 57508  43.0015 188.5645 0001661 254.9497 105.1162 15.02537743 68941
STARLINK-30082          
1 57509U 23113Q   24305.00935715  .00003300  00000+0  25922-3 0  9998
2 57509  43.0036 185.6192 0001319 255.2535 104.8161 15.02538101 69245
STARLINK-30153          
1 57510U 23113R   24304.74011320  .00000312  00000+0  38165-4 0  9991
2 57510  42.9991 187.0464 0001548 243.2021 116.8663 15.02533725 69094
STARLINK-30147          
1 57511U 23113S   24305.01601786  .00002736  00000+0  21750-3 0  9997
2 57511  43.0049 185.6690 0001267 258.9920 101.0780 15.02536101 69249
STARLINK-30157          
1 57512U 23113T   24305.02644720  .00001718  00000+0  14227-3 0  9994
2 57512  43.0039 159.1937 0002111 267.7638  92.2963 15.02533954 69553
STARLINK-30168          
1 57513U 23113U   24304.95286405  .00011470  00000+0  86244-3 0  9992
2 57513  43.0001 186.0223 0001403 256.8483 103.2202 15.02550479 69077
STARLINK-30231          
1 57514U 23113V   24305.06916386  .00005165  00000+0  39697-3 0  9998
2 57514  43.0013 185.1967 0001537 273.2840  86.7826 15.02552479 69253
STARLINK-30081          
1 57515U 23113W   24304.72346831  .00003208  00000+0  25242-3 0  9990
2 57515  43.0000 186.9242 0000539 305.3175  54.7617 15.02534090 69201
STARLINK-30149          
1 57516U 23113X   24305.04586842  .00003439  00000+0  26954-3 0  9992
2 57516  43.0007 185.0390 0001672 270.9994  89.0656 15.02536378 69146
STARLINK-30259          
1 57521U 23115A   24304.91327331  .00002232  00000+0  18024-3 0  9990
2 57521  43.0036 173.5090 0001099 247.5222 112.5504 15.02536633 68990
STARLINK-30256          
1 57522U 23115B   24305.04289705  .00005256  00000+0  40381-3 0  9998
2 57522  43.0043 172.7614 0001710 260.3612  99.7037 15.02541471 68755
STARLINK-30261          
1 57523U 23115C   24304.70717868  .00007364  00000+0  55954-3 0  9991
2 57523  43.0028 174.5452 0001700 268.3087  91.7561 15.02544081 68857
STARLINK-30260          
1 57524U 23115D   24304.37146386  .00004020  00000+0  31251-3 0  9996
2 57524  43.0030 176.3448 0001316 270.5628  89.5064 15.02537967 67807
STARLINK-30253          
1 57525U 23115E   24304.95977516  .00010875  00000+0  81868-3 0  9992
2 57525  43.0039 173.0028 0001234 265.5107  94.5594 15.02543136 68844
